JASON-3                 
1 41240U 16002A   17345.94546594 -.00000047  00000-0  58770-4 0  9999
2 41240  66.0410 112.9371 0007677 268.8774  91.1362 12.80931096 88910
